ONEWEB-0311             
1 49097U 21075Y   25342.19224864  .00000035  00000+0  55752-4 0  9991
2 49097  87.9119  43.8318 0001627 112.7201 247.4103 13.17648594208473
ONEWEB-0312             
1 49098U 21075Z   25342.20743725  .00000029  00000+0  41201-4 0  9993
2 49098  87.9114  43.8550 0001381 104.0648 256.0638 13.17650090208454
ONEWEB-0313             
1 49099U 21075AA  25342.21236435  .00000088  00000+0  19264-3 0  9998
2 49099  87.9110  43.8616 0001668 104.2367 255.8950 13.17651717208442
ONEWEB-0314             
1 49100U 21075AB  25342.17874822  .00000086  00000+0  18746-3 0  9996
2 49100  87.9122  43.8200 0001342 106.2143 253.9137 13.17649763208411
ONEWEB-0315             
1 49101U 21075AC  25342.15905463 -.00000304  00000+0 -88003-3 0  9999
2 49101  87.8940  28.5883 0001751 111.1546 248.9770 13.12444584210118
ONEWEB-0316             
1 49102U 21075AD  25342.32947663  .00000008  00000+0 -12487-4 0  9991
2 49102  87.9180  13.3740 0001786  97.9460 262.1875 13.18686122212055
ONEWEB-0317             
1 49103U 21075AE  25342.15257544 -.00000248  00000+0 -72580-3 0  9991
2 49103  87.8944  28.6072 0001861  73.4222 286.7111 13.12441370210139
ONEWEB-0318             
1 49104U 21075AF  25342.32617500  .00000039  00000+0  66499-4 0  9992
2 49104  87.9181  13.3622 0001685 103.8003 256.3317 13.18686294212017
